{
  "type": "FeatureCollection",
  "features": [
    {
      "type": "Feature",
      "properties": {
        "norad_id": 37781,
        "name": "HAIYANG-2A",
        "group": "resource",
        "lat": 80.23028323670071,
        "lon": -112.7108527788426,
        "alt_km": 959.4291921595595,
        "timestamp": "2025-12-19T14:48:35.901245+00:00",
        "meta_object_name": "HAIYANG-2A",
        "meta_object_id": "2011-043A",
        "meta_epoch": "2025-12-19T07:23:43.138752",
        "meta_mean_motion": 13.78836204,
        "meta_eccentricity": 0.00016461,
        "meta_inclination": 99.3372,
        "meta_ra_of_asc_node": 354.1417,
        "meta_arg_of_pericenter": 75.0062,
        "meta_mean_anomaly": 285.1272,
        "meta_ephemeris_type": 0,
        "meta_classification_type": "U",
        "meta_norad_cat_id": 37781,
        "meta_element_set_no": 999,
        "meta_rev_at_epoch": 72189,
        "meta_bstar": 0.00022432385,
        "meta_mean_motion_dot": 1.84e-06,
        "meta_mean_motion_ddot": 0,
        "tle_line1": "1 37781U 11043A   25353.30813818  .00000184  00000+0  22432-3 0  9993",
        "tle_line2": "2 37781  99.3372 354.1417 0001646  75.0062 285.1272 13.78836204721899"
      },
      "geometry": {
        "type": "Point",
        "coordinates": [
          -112.7108527788426,
          80.23028323670071
        ]
      }
    },
    {
      "type": "Feature",
      "properties": {
        "norad_id": 37791,
        "name": "RASAT",
        "group": "resource",
        "lat": -69.66755742267328,
        "lon": -119.7249066765653,
        "alt_km": 688.5581193903981,
        "timestamp": "2025-12-19T14:48:35.901256+00:00",
        "meta_object_name": "RASAT",
        "meta_object_id": "2011-044D",
        "meta_epoch": "2025-12-19T07:26:56.775840",
        "meta_mean_motion": 14.67918665,
        "meta_eccentricity": 0.00216156,
        "meta_inclination": 98.065,
        "meta_ra_of_asc_node": 82.4708,
        "meta_arg_of_pericenter": 45.1906,
        "meta_mean_anomaly": 26.3533,
        "meta_ephemeris_type": 0,
        "meta_classification_type": "U",
        "meta_norad_cat_id": 37791,
        "meta_element_set_no": 999,
        "meta_rev_at_epoch": 76679,
        "meta_bstar": 0.00010523421,
        "meta_mean_motion_dot": 5.55e-06,
        "meta_mean_motion_ddot": 0,
        "tle_line1": "1 37791U 11044D   25353.31037935  .00000555  00000+0  10523-3 0  9994",
        "tle_line2": "2 37791  98.0650  82.4708 0021615  45.1906  26.3533 14.67918665766796"
      },
      "geometry": {
        "type": "Point",
        "coordinates": [
          -119.7249066765653,
          -69.66755742267328
        ]
      }
    },
    {
      "type": "Feature",
      "properties": {
        "norad_id": 37841,
        "name": "SRMSAT",
        "group": "resource",
        "lat": 1.0101008893447017,
        "lon": -116.45069917683347,
        "alt_km": 859.0209050100084,
        "timestamp": "2025-12-19T14:48:35.901267+00:00",
        "meta_object_name": "SRMSAT",
        "meta_object_id": "2011-058D",
        "meta_epoch": "2025-12-18T14:54:57.461760",
        "meta_mean_motion": 14.11513433,
        "meta_eccentricity": 0.00119022,
        "meta_inclination": 19.9722,
        "meta_ra_of_asc_node": 72.3527,
        "meta_arg_of_pericenter": 18.2035,
        "meta_mean_anomaly": 128.7708,
        "meta_ephemeris_type": 0,
        "meta_classification_type": "U",
        "meta_norad_cat_id": 37841,
        "meta_element_set_no": 999,
        "meta_rev_at_epoch": 73227,
        "meta_bstar": 6.9468699e-05,
        "meta_mean_motion_dot": 3.93e-06,
        "meta_mean_motion_ddot": 0,
        "tle_line1": "1 37841U 11058D   25352.62149840  .00000393  00000+0  69469-4 0  9991",
        "tle_line2": "2 37841  19.9722  72.3527 0011902  18.2035 128.7708 14.11513433732273"
      },
      "geometry": {
        "type": "Point",
        "coordinates": [
          -116.45069917683347,
          1.0101008893447017
        ]
      }
    },
    {
      "type": "Feature",
      "properties": {
        "norad_id": 38012,
        "name": "PLEIADES 1A",
        "group": "resource",
        "lat": 4.444972632976315,
        "lon": -113.0794186158436,
        "alt_km": 700.3608386461119,
        "timestamp": "2025-12-19T14:48:35.901278+00:00",
        "meta_object_name": "PLEIADES 1A",
        "meta_object_id": "2011-076F",
        "meta_epoch": "2025-12-19T07:46:15.085344",
        "meta_mean_motion": 14.5856702,
        "meta_eccentricity": 0.00011515,
        "meta_inclination": 98.1822,
        "meta_ra_of_asc_node": 65.991,
        "meta_arg_of_pericenter": 74.1513,
        "meta_mean_anomaly": 2.0859,
        "meta_ephemeris_type": 0,
        "meta_classification_type": "U",
        "meta_norad_cat_id": 38012,
        "meta_element_set_no": 999,
        "meta_rev_at_epoch": 74577,
        "meta_bstar": 5.9776477e-05,
        "meta_mean_motion_dot": 2.32e-06,
        "meta_mean_motion_ddot": 0,
        "tle_line1": "1 38012U 11076F   25353.32378571  .00000232  00000+0  59776-4 0  9997",
        "tle_line2": "2 38012  98.1822  65.9910 0001151  74.1513   2.0859 14.58567020745777"
      },
      "geometry": {
        "type": "Point",
        "coordinates": [
          -113.0794186158436,
          4.444972632976315
        ]
      }
    },
    {
      "type": "Feature",
      "properties": {
        "norad_id": 38038,
        "name": "ZIYUAN 1-02C (ZY 1-02C)",
        "group": "resource",
        "lat": -63.503104330753,
        "lon": 76.81740195223986,
        "alt_km": 777.5014027156376,
        "timestamp": "2025-12-19T14:48:35.901289+00:00",
        "meta_object_name": "ZIYUAN 1-02C (ZY 1-02C)",
        "meta_object_id": "2011-079A",
        "meta_epoch": "2025-12-19T07:09:47.846016",
        "meta_mean_motion": 14.38019101,
        "meta_eccentricity": 0.0007405,
        "meta_inclination": 98.4331,
        "meta_ra_of_asc_node": 59.1917,
        "meta_arg_of_pericenter": 121.2265,
        "meta_mean_anomaly": 325.5726,
        "meta_ephemeris_type": 0,
        "meta_classification_type": "U",
        "meta_norad_cat_id": 38038,
        "meta_element_set_no": 999,
        "meta_rev_at_epoch": 73335,
        "meta_bstar": 0.00013433815,
        "meta_mean_motion_dot": 3.63e-06,
        "meta_mean_motion_ddot": 0,
        "tle_line1": "1 38038U 11079A   25353.29847044  .00000363  00000+0  13434-3 0  9995",
        "tle_line2": "2 38038  98.4331  59.1917 0007405 121.2265 325.5726 14.38019101733358"
      },
      "geometry": {
        "type": "Point",
        "coordinates": [
          76.81740195223986,
          -63.503104330753
        ]
      }
    },
    {
      "type": "Feature",
      "properties": {
        "norad_id": 38338,
        "name": "ARIRANG-3 (KOMPSAT-3)",
        "group": "resource",
        "lat": 28.7493763133959,
        "lon": 132.87067536360738,
        "alt_km": 689.6565142841719,
        "timestamp": "2025-12-19T14:48:35.901299+00:00",
        "meta_object_name": "ARIRANG-3 (KOMPSAT-3)",
        "meta_object_id": "2012-025B",
        "meta_epoch": "2025-12-19T07:33:01.911744",
        "meta_mean_motion": 14.61720863,
        "meta_eccentricity": 0.00049537,
        "meta_inclination": 98.3331,
        "meta_ra_of_asc_node": 307.9538,
        "meta_arg_of_pericenter": 316.0184,
        "meta_mean_anomaly": 44.0622,
        "meta_ephemeris_type": 0,
        "meta_classification_type": "U",
        "meta_norad_cat_id": 38338,
        "meta_element_set_no": 999,
        "meta_rev_at_epoch": 72506,
        "meta_bstar": 8.8548064e-05,
        "meta_mean_motion_dot": 3.93e-06,
        "meta_mean_motion_ddot": 0,
        "tle_line1": "1 38338U 12025B   25353.31460546  .00000393  00000+0  88548-4 0  9993",
        "tle_line2": "2 38338  98.3331 307.9538 0004953 316.0184  44.0622 14.61720863725069"
      },
      "geometry": {
        "type": "Point",
        "coordinates": [
          132.87067536360738,
          28.7493763133959
        ]
      }
    },
    {
      "type": "Feature",
      "properties": {
        "norad_id": 38709,
        "name": "EXACTVIEW-1 (ADS-1B)",
        "group": "resource",
        "lat": -40.59623534248345,
        "lon": 109.9253359430338,
        "alt_km": 808.1029791826468,
        "timestamp": "2025-12-19T14:48:35.901310+00:00",
        "meta_object_name": "EXACTVIEW-1 (ADS-1B)",
        "meta_object_id": "2012-039C",
        "meta_epoch": "2025-12-19T06:34:34.635072",
        "meta_mean_motion": 14.24910488,
        "meta_eccentricity": 0.00103384,
        "meta_inclination": 98.9638,
        "meta_ra_of_asc_node": 101.8012,
        "meta_arg_of_pericenter": 334.9028,
        "meta_mean_anomaly": 25.1646,
        "meta_ephemeris_type": 0,
        "meta_classification_type": "U",
        "meta_norad_cat_id": 38709,
        "meta_element_set_no": 999,
        "meta_rev_at_epoch": 69708,
        "meta_bstar": 6.0813181e-05,
        "meta_mean_motion_dot": 9.6e-07,
        "meta_mean_motion_ddot": 0,
        "tle_line1": "1 38709U 12039C   25353.27401198  .00000096  00000+0  60813-4 0  9998",
        "tle_line2": "2 38709  98.9638 101.8012 0010338 334.9028  25.1646 14.24910488697084"
      },
      "geometry": {
        "type": "Point",
        "coordinates": [
          109.9253359430338,
          -40.59623534248345
        ]
      }
    }
  ]
}